{
"type": "FeatureCollection",
"name": "buffer_1000.0m",
"crs": { "type": "name", "properties": { "name": "urn:ogc:def:crs:OGC:1.3:CRS84" } },
"features": [
{ "type": "Feature", "properties": { "name": "buffer_1000.0m" }, "geometry": { "type": "MultiPolygon", "coordinates": [ [ [ [ 116.471987759358782, 39.906995136432428 ], [ 116.471715390376417, 39.906136206227877 ], [ 116.471335022938021, 39.905301970999169 ], [ 116.470850323588579, 39.904500463880701 ], [ 116.470265963058864, 39.903739402582652 ], [ 116.469587571175992, 39.903026115113001 ], [ 116.468821682563785, 39.902367469259588 ], [ 116.467975673659481, 39.901769806509627 ], [ 116.4670576916551, 39.901238881040349 ], [ 116.466076576048408, 39.900779804366188 ], [ 116.465041773558923, 39.900396996173157 ], [ 116.463963247226076, 39.900094141811316 ], [ 116.462851380562384, 39.899874156852874 ], [ 116.461716877680914, 39.899739159055152 ], [ 116.460570660353454, 39.899690447996811 ], [ 116.459423762985949, 39.899728492582312 ], [ 116.45828722651585, 39.899852926534116 ], [ 116.457171992247481, 39.90006255191588 ], [ 116.456088796641225, 39.900355350652681 ], [ 116.455048068063434, 39.900728503938069 ], [ 116.454059826486343, 39.901178419342159 ], [ 116.453133587098179, 39.901700765361007 ], [ 116.452278268748174, 39.902290513076636 ], [ 116.451502108104776, 39.902941984528347 ], [ 116.450812580351879, 39.903648907331871 ], [ 116.450216327186055, 39.904404475022801 ], [ 116.449719092808621, 39.905201412545601 ], [ 116.449325668530747, 39.906032046259618 ], [ 116.449039846527938, 39.906888377790359 ], [ 116.448864383193126, 39.907762161016656 ], [ 116.448800972446449, 39.908644981453726 ], [ 116.448850229263684, 39.909528337269052 ], [ 116.449011683588765, 39.910403721151496 ], [ 116.44928378469487, 39.911262702245658 ], [ 116.449663915958553, 39.912097007362028 ], [ 116.450148419910931, 39.91289860068045 ], [ 116.450732633330148, 39.91365976117816 ], [ 116.451410932042506, 39.914373157034994 ], [ 116.452176785004667, 39.915031916297835 ], [ 116.453022817149403, 39.915629693121211 ], [ 116.453940880391627, 39.916160728944128 ], [ 116.454922132111577, 39.916619908011299 ], [ 116.455957120359002, 39.917002806701824 ], [ 116.457035874955949, 39.917305736187878 ], [ 116.458148003617751, 39.917525778010273 ], [ 116.459282792162966, 39.917660812226401 ], [ 116.460429307841864, 39.917709537858087 ], [ 116.461576504783068, 39.917671485440856 ], [ 116.462713330536644, 39.917547021553176 ], [ 116.463828832681259, 39.917337345281794 ], [ 116.464912264462242, 39.917044476657338 ], [ 116.46595318843714, 39.916671237171968 ], [ 116.4669415771247, 39.916221222568211 ], [ 116.467867909683363, 39.91569876816218 ], [ 116.468723263683373, 39.915108907037116 ], [ 116.469499401086296, 39.914457321511989 ], [ 116.470188847601349, 39.913750288354841 ], [ 116.470784964653888, 39.912994618270893 ], [ 116.471282013273381, 39.912197590250607 ], [ 116.471675209287184, 39.911366881412391 ], [ 116.471960769291897, 39.910510493017711 ], [ 116.472135946962979, 39.909636673373001 ], [ 116.472199059358232, 39.908753838362564 ], [ 116.472149502967326, 39.90787049037899 ], [ 116.471987759358782, 39.906995136432428 ] ] ], [ [ [ 116.466591821478161, 39.93049570516731 ], [ 116.466319430194858, 39.929636765595454 ], [ 116.465939001560059, 39.928802515617285 ], [ 116.465454202712593, 39.928000988508799 ], [ 116.464869705345507, 39.927239902171955 ], [ 116.464191140606914, 39.926526584854848 ], [ 116.463425044787769, 39.925867904631652 ], [ 116.462578796322319, 39.925270203319265 ], [ 116.461660544710128, 39.92473923546487 ], [ 116.460679132044973, 39.924280112989635 ], [ 116.459644007905609, 39.923897256019217 ], [ 116.458565138426735, 39.923594350372056 ], [ 116.457452910422262, 39.923374312113005 ], [ 116.456318031481132, 39.923239259511618 ], [ 116.455171426992294, 39.923190492673463 ], [ 116.454024135085248, 39.92322848103953 ], [ 116.452887200491986, 39.923352858873372 ], [ 116.451771568345848, 39.923562428779 ], [ 116.450687978934042, 39.923855173215941 ], [ 116.449646864411008, 39.924228273901171 ], [ 116.448658248461797, 39.924678138912107 ], [ 116.447731649876829, 39.925200437231105 ], [ 116.446875990962155, 39.925790140400693 ], [ 116.446099511664613, 39.92644157089051 ], [ 116.44540969023636, 39.927148456712175 ], [ 116.444813171202824, 39.92790399175891 ], [ 116.444315701327213, 39.928700901290981 ], [ 116.443922074191136, 39.929531511938691 ], [ 116.443636083927061, 39.930387825550966 ], [ 116.443460488552333, 39.931261596180256 ], [ 116.44339698326327, 39.932144409464009 ], [ 116.44344618395111, 39.93302776363921 ], [ 116.443607621105457, 39.933903151410888 ], [ 116.443879744169976, 39.934762141886281 ], [ 116.444259936314722, 39.935596461785316 ], [ 116.44474453948898, 39.936398075145057 ], [ 116.445328889519374, 39.937159260748921 ], [ 116.446007360919793, 39.937872686534014 ], [ 116.446773420986261, 39.938531480257829 ], [ 116.447619692658478, 39.939129295741694 ], [ 116.448538025545048, 39.939660374050895 ], [ 116.449519574428905, 39.940119599019518 ], [ 116.450554884496412, 39.940502546583176 ], [ 116.451633982467854, 39.940805527441945 ], [ 116.452746472748387, 39.941025622640659 ], [ 116.453881637670008, 39.941160711721594 ], [ 116.455028540853675, 39.94120949317729 ], [ 116.456176132691198, 39.94117149700503 ], [ 116.457313356924416, 39.941047089241231 ], [ 116.458429257289325, 39.940837468432079 ], [ 116.459513083191212, 39.940544654074237 ], [ 116.460554393387454, 39.940171467137752 ], [ 116.461543156673358, 39.939721502859797 ], [ 116.46246984859647, 39.939199096072812 ], [ 116.463325543263807, 39.938609279402591 ], [ 116.464101999354568, 39.937957734741303 ], [ 116.464791739508399, 39.937250738464847 ], [ 116.465388122323262, 39.936495100924702 ], [ 116.465885406270687, 39.935698100799414 ], [ 116.466278804914211, 39.934867414940101 ], [ 116.466564532902254, 39.934011044388171 ], [ 116.466739842296491, 39.93313723727934 ], [ 116.466803048890768, 39.932254409378039 ], [ 116.466753548272479, 39.931371063009038 ], [ 116.466591821478161, 39.93049570516731 ] ] ], [ [ [ 116.328303692484923, 39.981909527018431 ], [ 116.3280328403319, 39.981050282379329 ], [ 116.32765382161206, 39.980215597202267 ], [ 116.327170289909006, 39.979413508962317 ], [ 116.326586904737255, 39.978651740971273 ], [ 116.325909286559423, 39.977937628045375 ], [ 116.325143962575964, 39.977278045921892 ], [ 116.324298303812071, 39.976679345101985 ], [ 116.323380454110307, 39.976147289754614 ], [ 116.322399251712923, 39.97568700226779 ], [ 116.321364144189246, 39.975302913978489 ], [ 116.320285097525044, 39.974998722553309 ], [ 116.319172500247163, 39.974777356428355 ], [ 116.318037063502416, 39.974640946648933 ], [ 116.316889718048159, 39.974590806378089 ], [ 116.31574150914156, 39.974627418271041 ], [ 116.314603490332829, 39.974750429835254 ], [ 116.313486617179947, 39.974958656821499 ], [ 116.312401641901317, 39.975250094612591 ], [ 116.311359009975007, 39.975621937501316 ], [ 116.310368759674745, 39.97607060567254 ], [ 116.309440425505102, 39.97659177963137 ], [ 116.308582946461428, 39.977180441747599 ], [ 116.307804579995121, 39.977830924518287 ], [ 116.307112822510774, 39.978536965086121 ], [ 116.30651433715984, 39.979291765490906 ], [ 116.306014889626852, 39.980088058076277 ], [ 116.305619292528021, 39.980918175424172 ], [ 116.305331358961141, 39.981774124145758 ], [ 116.305153865657132, 39.982647661819939 ], [ 116.305088526093755, 39.983530376340461 ], [ 116.305135973835704, 39.984413766908268 ], [ 116.305295756267313, 39.985289325890072 ], [ 116.305566338785141, 39.986148620755486 ], [ 116.305945119415853, 39.986983375302756 ], [ 116.306428453725459, 39.987785549390971 ], [ 116.307011689785199, 39.988547416409247 ], [ 116.307689212862712, 39.989261637735723 ], [ 116.308454499412235, 39.989921333467422 ], [ 116.309300179847114, 39.990520148737268 ], [ 116.310218109492013, 39.991052314978042 ], [ 116.31119944703245, 39.991512705540146 ], [ 116.312234739705715, 39.991896885125506 ], [ 116.313314014410807, 39.99220115255909 ], [ 116.314426873857357, 39.992422576483754 ], [ 116.315562596823611, 39.992559023633063 ], [ 116.316710241552812, 39.992609179407815 ], [ 116.317858751286906, 39.992572560557015 ], [ 116.318997060914995, 39.992449519840562 ], [ 116.320114203703113, 39.992241242627998 ], [ 116.321199417070886, 39.991949735466669 ], [ 116.322242246390658, 39.99157780672968 ], [ 116.323232645802904, 39.991129039531238 ], [ 116.324161075072823, 39.990607757171809 ], [ 116.325018591550432, 39.990018981447371 ], [ 116.325796936345711, 39.989368384226751 ], [ 116.326488613886923, 39.988662232765527 ], [ 116.327086964094747, 39.987907329285449 ], [ 116.327586226478175, 39.987110945404019 ], [ 116.327981595536116, 39.986280752047755 ], [ 116.328269266934328, 39.985424745526451 ], [ 116.3284464740169, 39.984551170482391 ], [ 116.328511514305291, 39.983668440457947 ], [ 116.32846376573589, 39.982785056848016 ], [ 116.328303692484923, 39.981909527018431 ] ] ], [ [ [ 116.495202214780349, 39.996492954435247 ], [ 116.494929211492334, 39.995634087963658 ], [ 116.494548076713556, 39.99479993687558 ], [ 116.494062484391677, 39.993998533490142 ], [ 116.493477113866874, 39.993237594513147 ], [ 116.49279760469912, 39.992524446768925 ], [ 116.492030502274517, 39.991865956694085 ], [ 116.491183194718374, 39.991268464270107 ], [ 116.490263841723973, 39.990737722028861 ], [ 116.489281295983446, 39.990278839715742 ], [ 116.488245017977022, 39.989896235141252 ], [ 116.487164984939028, 39.989593591691694 ], [ 116.486051594875136, 39.989373822906316 ], [ 116.484915566550754, 39.989239044459914 ], [ 116.48376783640893, 39.989190553819043 ], [ 116.482619453405121, 39.989228817766957 ], [ 116.481481472765267, 39.989353467916068 ], [ 116.480364849684292, 39.989563304251433 ], [ 116.479280333982061, 39.989856306670831 ], [ 116.478238366725478, 39.990229654411124 ], [ 116.477248979806248, 39.990679753175108 ], [ 116.476321699436895, 39.99120226969859 ], [ 116.475465454489552, 39.9917921734272 ], [ 116.474688490557938, 39.99244378490318 ], [ 116.473998290567494, 39.993150830398818 ], [ 116.473401502697783, 39.993906502272587 ], [ 116.472903876311932, 39.994703524469287 ], [ 116.472510206511416, 39.995534222535589 ], [ 116.472224287853535, 39.996390597479092 ], [ 116.472048877680876, 39.997264402761175 ], [ 116.47198566942123, 39.998147223684256 ], [ 116.472035276120025, 39.999030558409636 ], [ 116.472197224370674, 39.999905899826707 ], [ 116.472469958707137, 40.000764817485567 ], [ 116.47285085642315, 40.001599038803349 ], [ 116.473336252681221, 40.002400528762031 ], [ 116.473921475675752, 40.003161567328824 ], [ 116.474600891516346, 40.003874823852243 ], [ 116.475367958403368, 40.004533427715359 ], [ 116.47621528957724, 40.005131034563846 ], [ 116.477134724437022, 40.005661887468577 ], [ 116.478117407144552, 40.006120872431438 ], [ 116.479153871956086, 40.006503567697145 ], [ 116.480234134458442, 40.006806286394173 ], [ 116.48134778782773, 40.007026112091545 ], [ 116.4824841031799, 40.007160926927419 ], [ 116.483632133041581, 40.007209432036738 ], [ 116.484780816939235, 40.007171160080304 ], [ 116.48591908808379, 40.007046479753406 ], [ 116.487035980116303, 40.006836592230748 ], [ 116.488120732881328, 40.006543519581648 ], [ 116.489162896201734, 40.006170085268117 ], [ 116.490152430651193, 40.005719886914321 ], [ 116.491079804347692, 40.005197261611634 ], [ 116.491936084832574, 40.00460724409475 ], [ 116.492713025146458, 40.003955518194246 ], [ 116.493403143271493, 40.003248362035144 ], [ 116.493999794174158, 40.002492587511625 ], [ 116.494497233754913, 40.00169547462373 ], [ 116.49489067409111, 40.000864701309958 ], [ 116.495176329443623, 40.000008269454469 ], [ 116.495351452588466, 39.999134427782934 ], [ 116.495414361128283, 39.998251592391377 ], [ 116.495364453535672, 39.997368265674552 ], [ 116.495202214780349, 39.996492954435247 ] ] ] ] } }
]
}
