{
"type": "FeatureCollection",
"name": "buffer_500.0m",
"crs": { "type": "name", "properties": { "name": "urn:ogc:def:crs:OGC:1.3:CRS84" } },
"features": [
{ "type": "Feature", "properties": { "name": "国贸_500.0m" }, "geometry": { "type": "Polygon", "coordinates": [ [ [ 116.466349525746622, 39.908727066704834 ], [ 116.466324784996317, 39.908285391727262 ], [ 116.466243949347316, 39.907847711005573 ], [ 116.466107798332416, 39.907418239536518 ], [ 116.465917644124346, 39.907001113181835 ], [ 116.465675318862068, 39.906600348844691 ], [ 116.465383156973374, 39.906219805794372 ], [ 116.465043972666237, 39.905863148511379 ], [ 116.464661032806063, 39.905533811410187 ], [ 116.464238025441105, 39.905234965778916 ], [ 116.463779024279631, 39.904969489253844 ], [ 116.463288449461231, 39.904739938121871 ], [ 116.46277102499954, 39.904548522717427 ], [ 116.462231733306339, 39.904397086149842 ], [ 116.461675767233899, 39.904287086565731 ], [ 116.461108480096499, 39.904219583116578 ], [ 116.460535334151331, 39.9041952257665 ], [ 116.459961848033416, 39.904214249037615 ], [ 116.459393543649469, 39.904276469753626 ], [ 116.458835893040316, 39.904381288802725 ], [ 116.458294265722117, 39.904527696903287 ], [ 116.457773877011931, 39.904714284316732 ], [ 116.457279737834241, 39.904939254414444 ], [ 116.45681660648988, 39.905200440968407 ], [ 116.456388942851319, 39.905495328999343 ], [ 116.456000865424699, 39.90582107898247 ], [ 116.455656111691169, 39.90617455417798 ], [ 116.455358002109804, 39.906552350823688 ], [ 116.455109408128507, 39.906950830899973 ], [ 116.454912724511573, 39.907366157151671 ], [ 116.45476984625121, 39.907794330030455 ], [ 116.454682150286089, 39.908231226202226 ], [ 116.454650482204556, 39.908672638249229 ], [ 116.454675148061426, 39.909114315184766 ], [ 116.454755911389555, 39.909552003390402 ], [ 116.454891995435403, 39.909981487581859 ], [ 116.455082090599774, 39.910398631408455 ], [ 116.455324367012793, 39.9107994172956 ], [ 116.455616492123866, 39.911179985145843 ], [ 116.455955653138375, 39.911536669525624 ], [ 116.456338584086055, 39.911866034979177 ], [ 116.456761597261121, 39.912164909128798 ], [ 116.457220618732066, 39.912430413242284 ], [ 116.457711227578784, 39.912659989972504 ], [ 116.458228698479957, 39.912851428001325 ], [ 116.458768047239175, 39.913002883349968 ], [ 116.459324078811122, 39.913112897150064 ], [ 116.459891437364476, 39.913180409703806 ], [ 116.460464657897518, 39.913204770697241 ], [ 116.46103821890884, 39.913185745468184 ], [ 116.461606595613645, 39.913123517268197 ], [ 116.462164313191849, 39.913018685496695 ], [ 116.462705999553748, 39.912872259924214 ], [ 116.463226437113207, 39.912685650960782 ], [ 116.463720613068517, 39.912460656063146 ], [ 116.464183767705507, 39.912199442412394 ], [ 116.464611440256576, 39.911904526029105 ], [ 116.464999511873074, 39.911578747527606 ], [ 116.465344245297146, 39.911225244743704 ], [ 116.465642320850179, 39.910847422499735 ], [ 116.465890868391995, 39.910448919799066 ], [ 116.466087494942911, 39.910033574766324 ], [ 116.466230307703768, 39.909605387671554 ], [ 116.46631793225292, 39.909168482395181 ], [ 116.466349525746622, 39.908727066704834 ] ] ] } },
{ "type": "Feature", "properties": { "name": "中关村_500.0m" }, "geometry": { "type": "Polygon", "coordinates": [ [ [ 116.322655752146048, 39.98363436812992 ], [ 116.322631915463262, 39.983192675448372 ], [ 116.322551915185116, 39.982754906883123 ], [ 116.322416522804744, 39.982325278279681 ], [ 116.322227043195255, 39.981907927015463 ], [ 116.3219853020057, 39.981506872161496 ], [ 116.321693628046134, 39.981125975786192 ], [ 116.321354830832689, 39.980768905773374 ], [ 116.320972173509759, 39.980439100512285 ], [ 116.320549341411095, 39.980139735798964 ], [ 116.320090406562684, 39.979873694267347 ], [ 116.319599788470128, 39.979643537643767 ], [ 116.319082211567292, 39.979451482091385 ], [ 116.318542659736295, 39.979299376881606 ], [ 116.317986328335422, 39.979188686597304 ], [ 116.317418574196694, 39.979120477038386 ], [ 116.316844864072692, 39.979095404965754 ], [ 116.316270722028577, 39.97911371178138 ], [ 116.315701676283425, 39.979175221205679 ], [ 116.315143206012237, 39.979279340974102 ], [ 116.314600688618626, 39.979425068537147 ], [ 116.31407934798473, 39.979611000708282 ], [ 116.313584204195365, 39.979835347167985 ], [ 116.313120025219064, 39.980095947693592 ], [ 116.312691281010729, 39.98039029294965 ], [ 116.312302100476487, 39.980715548639296 ], [ 116.311956231715357, 39.981068582784424 ], [ 116.311657005920139, 39.981445995872285 ], [ 116.311407305284916, 39.981844153579665 ], [ 116.311209535229537, 39.982259221758817 ], [ 116.311065601208369, 39.982687203349968 ], [ 116.310976890328277, 39.983123976864611 ], [ 116.310944257953736, 39.983565336069681 ], [ 116.310968019429623, 39.984007030490694 ], [ 116.311047947002962, 39.984444806344008 ], [ 116.311183271974514, 39.984874447504033 ], [ 116.311372692061695, 39.985291816110802 ], [ 116.311614383902906, 39.985692892426833 ], [ 116.311906020584502, 39.986073813558939 ], [ 116.31224479402286, 39.986430910671913 ], [ 116.312627441987303, 39.986760744335058 ], [ 116.313050279503727, 39.987060137660855 ], [ 116.3135092343379, 39.98732620691581 ], [ 116.313999886216251, 39.987556389308224 ], [ 116.314517509406457, 39.987748467684632 ], [ 116.315057118247694, 39.987900591896484 ], [ 116.315613515190719, 39.988011296630731 ], [ 116.316181340884839, 39.988079515532114 ], [ 116.316755125827555, 39.98810459148072 ], [ 116.317329343078555, 39.988086282925629 ], [ 116.317898461528529, 39.988024766213279 ], [ 116.318456999208522, 39.987920633888272 ], [ 116.318999576124426, 39.987774888982678 ], [ 116.319520966106694, 39.987588935349486 ], [ 116.320016147174059, 39.987364564132967 ], [ 116.320480349925418, 39.987103936507218 ], [ 116.320909103492241, 39.98680956284911 ], [ 116.321298278608737, 39.986484278546968 ], [ 116.321644127384062, 39.986131216678508 ], [ 116.321943319393526, 39.985753777821806 ], [ 116.322192973741352, 39.985355597290408 ], [ 116.322390686786505, 39.984940510109162 ], [ 116.32253455526552, 39.984512514068079 ], [ 116.322623194590236, 39.984075731210964 ], [ 116.322655752146048, 39.98363436812992 ] ] ] } },
{ "type": "Feature", "properties": { "name": "望京_500.0m" }, "geometry": { "type": "Polygon", "coordinates": [ [ [ 116.489557176788779, 39.998225944186792 ], [ 116.489532260602601, 39.997784279820472 ], [ 116.489451177532857, 39.997346620422171 ], [ 116.489314709499453, 39.996917180782397 ], [ 116.489124171732144, 39.99650009645525 ], [ 116.488881400066916, 39.99609938393796 ], [ 116.488588733233115, 39.995718901999396 ], [ 116.488248990303049, 39.995362314530119 ], [ 116.48786544352258, 39.995033055270866 ], [ 116.487441786784487, 39.994734294758722 ], [ 116.486982100049573, 39.994468909808944 ], [ 116.486490810057532, 39.994239455825408 ], [ 116.48597264770649, 39.99404814220604 ], [ 116.485432602510755, 39.993896811079189 ], [ 116.484875874574854, 39.993786919575612 ], [ 116.484307824545553, 39.993719525805737 ], [ 116.483733922022196, 39.993695278677507 ], [ 116.483159692921163, 39.993714411651929 ], [ 116.482590666299757, 39.993776740496834 ], [ 116.482032321149944, 39.993881665059924 ], [ 116.481490033672756, 39.994028175044512 ], [ 116.480969025539849, 39.994214859732061 ], [ 116.480474313638624, 39.994439921558495 ], [ 116.480010661784007, 39.994701193413746 ], [ 116.47958253486081, 39.994996159498527 ], [ 116.479194055837183, 39.995321979537685 ], [ 116.478848966063268, 39.995675516117991 ], [ 116.478550589236633, 39.996053364887203 ], [ 116.478301799381939, 39.996451887324667 ], [ 116.478104993153664, 39.996867245767952 ], [ 116.477962066729148, 39.997295440359125 ], [ 116.477874397515592, 39.997732347555193 ], [ 116.477842830848616, 39.998173759832106 ], [ 116.477867671811339, 39.998615426200573 ], [ 116.477948682254919, 39.999053093143324 ], [ 116.478085083050431, 39.999482545579923 ], [ 116.478275561552024, 39.999899647464488 ], [ 116.478518284201286, 40.000300381625102 ], [ 116.478810914152561, 40.000680888461105 ], [ 116.47915063375082, 40.001037503125183 ], [ 116.479534171646904, 40.001366790831504 ], [ 116.479957834289436, 40.001665579949773 ], [ 116.480417541490681, 40.001930992565427 ], [ 116.480908865724473, 40.002160472211401 ], [ 116.481427074776803, 40.002351808503569 ], [ 116.481967177338646, 40.002503158442281 ], [ 116.482523971100875, 40.002613064173865 ], [ 116.483092092887119, 40.002680467041095 ], [ 116.483666070340433, 40.002704717786443 ], [ 116.484240374664921, 40.002685582809889 ], [ 116.484809473912478, 40.002623246420548 ], [ 116.485367886300224, 40.002518309060626 ], [ 116.4859102330431, 40.002371781518612 ], [ 116.486431290191973, 40.002185075187761 ], [ 116.486926038975753, 40.001959988463874 ], [ 116.487389714162148, 40.001698689413807 ], [ 116.48781784996973, 40.001403694881972 ], [ 116.488206323088917, 40.001077846236683 ], [ 116.488551392396488, 40.0007242819905 ], [ 116.488849734981386, 40.000346407558844 ], [ 116.489098478134792, 39.999947862448586 ], [ 116.489295226996973, 39.999532485193441 ], [ 116.489438087595147, 39.999104276374261 ], [ 116.489525685051746, 39.998667360080837 ], [ 116.489557176788779, 39.998225944186792 ] ] ] } },
{ "type": "Feature", "properties": { "name": "三里屯_500.0m" }, "geometry": { "type": "Polygon", "coordinates": [ [ [ 116.46095152046928, 39.932227352334351 ], [ 116.460926807649884, 39.931785678167245 ], [ 116.460845980452561, 39.931347995498719 ], [ 116.46070981832996, 39.930918519344267 ], [ 116.460519633563138, 39.930501385610711 ], [ 116.460277258586331, 39.930100611272131 ], [ 116.459985028307216, 39.929720055693977 ], [ 116.459645757593165, 39.929363383477174 ], [ 116.459262714142326, 39.929034029179697 ], [ 116.45883958700098, 39.928735164254967 ], [ 116.458380451031033, 39.92846966652467 ], [ 116.457889727670207, 39.928240092479612 ], [ 116.457372142362317, 39.928048652674512 ], [ 116.45683267906756, 39.927897190453344 ], [ 116.456276532289991, 39.927787164209469 ], [ 116.455709057083183, 39.927719633350847 ], [ 116.455135717514395, 39.92769524810533 ], [ 116.454562034082116, 39.927714243263551 ], [ 116.453993530592058, 39.927776435919831 ], [ 116.453435681001238, 39.927881227232604 ], [ 116.452893856740843, 39.928027608187392 ], [ 116.452373275023533, 39.928214169307168 ], [ 116.451878948631531, 39.928439114216722 ], [ 116.451415637667779, 39.928700276930833 ], [ 116.45098780373408, 39.92899514270016 ], [ 116.450599566976152, 39.92932087221461 ], [ 116.450254666409506, 39.929674328931824 ], [ 116.449956423907423, 39.930052109267969 ], [ 116.449707712198304, 39.930450575360865 ], [ 116.449510927180796, 39.930865890090345 ], [ 116.449367964824546, 39.931294054019354 ], [ 116.449280202879066, 39.93173094390027 ], [ 116.449248487569221, 39.932172352376142 ], [ 116.449273125406023, 39.932614028494811 ], [ 116.449353880193343, 39.933051718645821 ], [ 116.449489975261216, 39.933481207526157 ], [ 116.449680100905553, 39.933898358739945 ], [ 116.449922426964051, 39.93429915464133 ], [ 116.450214620409014, 39.934679735036219 ], [ 116.4505538677885, 39.935036434370041 ], [ 116.450936902301166, 39.935365817042673 ], [ 116.451360035244221, 39.935664710510281 ], [ 116.451819191532749, 39.935930235854272 ], [ 116.452309948948269, 39.936159835522659 ], [ 116.452827580738202, 39.936351297976074 ], [ 116.453367101156104, 39.936502779000143 ], [ 116.453923313502671, 39.936612819478952 ], [ 116.454490860204601, 39.936680359457455 ], [ 116.455064274447096, 39.936704748357357 ], [ 116.455638032861984, 39.936685751247587 ], [ 116.456206608762031, 39.936623551108809 ], [ 116.45676452540755, 39.936518747070167 ], [ 116.457306408790444, 39.936372348635146 ], [ 116.457827039426064, 39.936185765952558 ], [ 116.45832140265226, 39.935960796226254 ], [ 116.458784736950534, 39.935699606395133 ], [ 116.45921257982242, 39.935404712250659 ], [ 116.459600810778653, 39.93507895419333 ], [ 116.459945691026689, 39.934725469862421 ], [ 116.460243899474094, 39.934347663902919 ], [ 116.460492564701198, 39.933949175161722 ], [ 116.460689292595518, 39.933533841629348 ], [ 116.460832189382785, 39.933105663465419 ], [ 116.460919879833156, 39.932668764464616 ], [ 116.46095152046928, 39.932227352334351 ] ] ] } }
]
}
